start=new Date('2022-07-05T00:00:00.000Z').valueOf();
sats=[{"REF_FRAME":"TEME","SITE":"AFETR","MEAN_MOTION":"15.08810918","OBJECT_ID":"2022-041U","TLE_LINE1":"1 52279U 22041U   22185.91667824  .00030547  00000-0  19306-2 0  9995","ECCENTRICITY":"0.00016140","INCLINATION":"53.2156","ARG_OF_PERICENTER":"62.1976","RCS_SIZE":"LARGE","APOAPSIS":"540.951","RA_OF_ASC_NODE":"21.5378","PERIAPSIS":"538.718","TIME_SYSTEM":"UTC","NORAD_CAT_ID":"52279","DECAY_DATE":null,"MEAN_MOTION_DOT":"0.00030547","FILE":"3507746","COUNTRY_CODE":"US","LAUNCH_DATE":"2022-04-21","BSTAR":"0.00193060000000","TLE_LINE2":"2 52279  53.2156  21.5378 0001614  62.1976 225.6261 15.08810918  1307","PERIOD":"95.439","CLASSIFICATION_TYPE":"U","ELEMENT_SET_NO":"999","EPOCH":"2022-07-04T22:00:00.999936","OBJECT_NAME":"STARLINK-3686","SEMIMAJOR_AXIS":"6917.969","MEAN_ANOMALY":"225.6261","REV_AT_EPOCH":"130","MEAN_MOTION_DDOT":"0.0000000000000","EPHEMERIS_TYPE":"0","GP_ID":"207419724","OBJECT_TYPE":"PAYLOAD","MEAN_ELEMENT_THEORY":"SGP4","CENTER_NAME":"EARTH"},{"COUNTRY_CODE":"US","MEAN_MOTION_DOT":"0.00024299","FILE":"3507746","ELEMENT_SET_NO":"999","CLASSIFICATION_TYPE":"U","TLE_LINE2":"2 52280  53.2228  21.5393 0001969  49.6271 343.3887 15.08808443  1309","PERIOD":"95.440","BSTAR":"0.00154090000000","LAUNCH_DATE":"2022-04-21","EPOCH":"2022-07-04T22:00:00.999936","REV_AT_EPOCH":"130","MEAN_ANOMALY":"343.3887","SEMIMAJOR_AXIS":"6917.977","OBJECT_NAME":"STARLINK-3764","MEAN_MOTION_DDOT":"0.0000000000000","GP_ID":"207420176","EPHEMERIS_TYPE":"0","MEAN_ELEMENT_THEORY":"SGP4","OBJECT_TYPE":"PAYLOAD","CENTER_NAME":"EARTH","SITE":"AFETR","REF_FRAME":"TEME","OBJECT_ID":"2022-041V","TLE_LINE1":"1 52280U 22041V   22185.91667824  .00024299  00000-0  15409-2 0  9994","MEAN_MOTION":"15.08808443","ECCENTRICITY":"0.00019690","RCS_SIZE":"LARGE","APOAPSIS":"541.204","ARG_OF_PERICENTER":"49.6271","INCLINATION":"53.2228","TIME_SYSTEM":"UTC","PERIAPSIS":"538.480","RA_OF_ASC_NODE":"21.5393","NORAD_CAT_ID":"52280","DECAY_DATE":null},{"ECCENTRICITY":"0.00017520","REF_FRAME":"TEME","SITE":"AFETR","MEAN_MOTION":"15.08807740","TLE_LINE1":"1 52281U 22041W   22185.91667824  .00029373  00000-0  18576-2 0  9991","OBJECT_ID":"2022-041W","NORAD_CAT_ID":"52281","DECAY_DATE":null,"INCLINATION":"53.2169","ARG_OF_PERICENTER":"45.6736","RCS_SIZE":"LARGE","APOAPSIS":"541.056","RA_OF_ASC_NODE":"21.5376","PERIAPSIS":"538.632","TIME_SYSTEM":"UTC","EPOCH":"2022-07-04T22:00:00.999936","OBJECT_NAME":"STARLINK-3779","SEMIMAJOR_AXIS":"6917.979","MEAN_ANOMALY":"262.1213","REV_AT_EPOCH":"130","MEAN_MOTION_DOT":"0.00029373","FILE":"3507746","COUNTRY_CODE":"US","LAUNCH_DATE":"2022-04-21","TLE_LINE2":"2 52281  53.2169  21.5376 0001752  45.6736 262.1213 15.08807740  1307","CLASSIFICATION_TYPE":"U","PERIOD":"95.440","BSTAR":"0.00185760000000","ELEMENT_SET_NO":"999","OBJECT_TYPE":"PAYLOAD","MEAN_ELEMENT_THEORY":"SGP4","CENTER_NAME":"EARTH","MEAN_MOTION_DDOT":"0.0000000000000","EPHEMERIS_TYPE":"0","GP_ID":"207420362"},{"NORAD_CAT_ID":"52282","DECAY_DATE":null,"RCS_SIZE":"LARGE","ARG_OF_PERICENTER":"53.9462","APOAPSIS":"486.359","INCLINATION":"53.2175","TIME_SYSTEM":"UTC","PERIAPSIS":"484.401","RA_OF_ASC_NODE":"12.3753","ECCENTRICITY":"0.00014260","SITE":"AFETR","REF_FRAME":"TEME","OBJECT_ID":"2022-041X","TLE_LINE1":"1 52282U 22041X   22185.91667824 -.00724253  00000-0 -29086-1 0  9990","MEAN_MOTION":"15.26802606","MEAN_ELEMENT_THEORY":"SGP4","OBJECT_TYPE":"PAYLOAD","CENTER_NAME":"EARTH","MEAN_MOTION_DDOT":"0.0000000000000","GP_ID":"207419913","EPHEMERIS_TYPE":"0","EPOCH":"2022-07-04T22:00:00.999936","REV_AT_EPOCH":"130","MEAN_ANOMALY":"353.8662","SEMIMAJOR_AXIS":"6863.515","OBJECT_NAME":"STARLINK-3783","COUNTRY_CODE":"US","MEAN_MOTION_DOT":"-0.00724253","FILE":"3507746","ELEMENT_SET_NO":"999","CLASSIFICATION_TYPE":"U","TLE_LINE2":"2 52282  53.2175  12.3753 0001426  53.9462 353.8662 15.26802606  1300","PERIOD":"94.315","BSTAR":"-0.02908600000000","LAUNCH_DATE":"2022-04-21"},{"SEMIMAJOR_AXIS":"6917.959","OBJECT_NAME":"STARLINK-3789","REV_AT_EPOCH":"130","MEAN_ANOMALY":"298.0894","EPOCH":"2022-07-04T22:00:00.999936","LAUNCH_DATE":"2022-04-21","ELEMENT_SET_NO":"999","PERIOD":"95.439","TLE_LINE2":"2 52283  53.2198  21.5378 0001711  54.9306 298.0894 15.08814246  1306","BSTAR":"0.00163890000000","CLASSIFICATION_TYPE":"U","COUNTRY_CODE":"US","FILE":"3507746","MEAN_MOTION_DOT":"0.00025873","CENTER_NAME":"EARTH","OBJECT_TYPE":"PAYLOAD","MEAN_ELEMENT_THEORY":"SGP4","EPHEMERIS_TYPE":"0","GP_ID":"207420076","MEAN_MOTION_DDOT":"0.0000000000000","ECCENTRICITY":"0.00017110","MEAN_MOTION":"15.08814246","TLE_LINE1":"1 52283U 22041Y   22185.91667824  .00025873  00000-0  16389-2 0  9994","OBJECT_ID":"2022-041Y","REF_FRAME":"TEME","SITE":"AFETR","DECAY_DATE":null,"NORAD_CAT_ID":"52283","RA_OF_ASC_NODE":"21.5378","PERIAPSIS":"538.640","TIME_SYSTEM":"UTC","INCLINATION":"53.2198","RCS_SIZE":"LARGE","ARG_OF_PERICENTER":"54.9306","APOAPSIS":"541.008"},{"ECCENTRICITY":"0.00014750","TLE_LINE1":"1 52284U 22041Z   22185.91667824 -.00724012  00000-0 -28726-1 0  9995","OBJECT_ID":"2022-041Z","MEAN_MOTION":"15.27198854","SITE":"AFETR","REF_FRAME":"TEME","DECAY_DATE":null,"NORAD_CAT_ID":"52284","TIME_SYSTEM":"UTC","PERIAPSIS":"483.180","RA_OF_ASC_NODE":"12.3886","RCS_SIZE":"LARGE","ARG_OF_PERICENTER":"52.2641","APOAPSIS":"485.205","INCLINATION":"53.2176","REV_AT_EPOCH":"130","MEAN_ANOMALY":"18.5962","SEMIMAJOR_AXIS":"6862.328","OBJECT_NAME":"STARLINK-3561","EPOCH":"2022-07-04T22:00:00.999936","ELEMENT_SET_NO":"999","TLE_LINE2":"2 52284  53.2176  12.3886 0001475  52.2641  18.5962 15.27198854  1307","CLASSIFICATION_TYPE":"U","PERIOD":"94.290","BSTAR":"-0.02872600000000","LAUNCH_DATE":"2022-04-21","COUNTRY_CODE":"US","FILE":"3507746","MEAN_MOTION_DOT":"-0.00724012","CENTER_NAME":"EARTH","MEAN_ELEMENT_THEORY":"SGP4","OBJECT_TYPE":"PAYLOAD","GP_ID":"207419824","EPHEMERIS_TYPE":"0","MEAN_MOTION_DDOT":"0.0000000000000"},{"NORAD_CAT_ID":"52285","DECAY_DATE":null,"INCLINATION":"53.2211","RCS_SIZE":"LARGE","ARG_OF_PERICENTER":"50.5683","APOAPSIS":"541.131","RA_OF_ASC_NODE":"21.5384","PERIAPSIS":"538.589","TIME_SYSTEM":"UTC","ECCENTRICITY":"0.00018370","REF_FRAME":"TEME","SITE":"AFETR","MEAN_MOTION":"15.08802460","TLE_LINE1":"1 52285U 22041AA  22185.91667824  .00024648  00000-0  15629-2 0  9991","OBJECT_ID":"2022-041AA","OBJECT_TYPE":"PAYLOAD","MEAN_ELEMENT_THEORY":"SGP4","CENTER_NAME":"EARTH","MEAN_MOTION_DDOT":"0.0000000000000","EPHEMERIS_TYPE":"0","GP_ID":"207420011","EPOCH":"2022-07-04T22:00:00.999936","OBJECT_NAME":"STARLINK-3775","SEMIMAJOR_AXIS":"6917.995","MEAN_ANOMALY":"322.4235","REV_AT_EPOCH":"130","MEAN_MOTION_DOT":"0.00024648","FILE":"3507746","COUNTRY_CODE":"US","LAUNCH_DATE":"2022-04-21","PERIOD":"95.440","TLE_LINE2":"2 52285  53.2211  21.5384 0001837  50.5683 322.4235 15.08802460  1306","BSTAR":"0.00156290000000","CLASSIFICATION_TYPE":"U","ELEMENT_SET_NO":"999"},{"NORAD_CAT_ID":"52286","DECAY_DATE":null,"INCLINATION":"53.2176","APOAPSIS":"483.940","RCS_SIZE":"LARGE","ARG_OF_PERICENTER":"64.3719","RA_OF_ASC_NODE":"12.4017","PERIAPSIS":"482.071","TIME_SYSTEM":"UTC","ECCENTRICITY":"0.00013620","REF_FRAME":"TEME","SITE":"AFETR","MEAN_MOTION":"15.27595098","OBJECT_ID":"2022-041AB","TLE_LINE1":"1 52286U 22041AB  22185.91667824 -.00723619  00000-0 -28364-1 0  9997","OBJECT_TYPE":"PAYLOAD","MEAN_ELEMENT_THEORY":"SGP4","CENTER_NAME":"EARTH","MEAN_MOTION_DDOT":"0.0000000000000","EPHEMERIS_TYPE":"0","GP_ID":"207420265","EPOCH":"2022-07-04T22:00:00.999936","SEMIMAJOR_AXIS":"6861.141","OBJECT_NAME":"STARLINK-3802","REV_AT_EPOCH":"130","MEAN_ANOMALY":"29.1665","COUNTRY_CODE":"US","FILE":"3507746","MEAN_MOTION_DOT":"-0.00723619","LAUNCH_DATE":"2022-04-21","ELEMENT_SET_NO":"999","BSTAR":"-0.02836400000000","TLE_LINE2":"2 52286  53.2176  12.4017 0001362  64.3719  29.1665 15.27595098  1300","PERIOD":"94.266","CLASSIFICATION_TYPE":"U"},{"DECAY_DATE":null,"NORAD_CAT_ID":"52287","TIME_SYSTEM":"UTC","PERIAPSIS":"538.358","RA_OF_ASC_NODE":"21.5391","RCS_SIZE":"LARGE","ARG_OF_PERICENTER":"48.1889","APOAPSIS":"541.175","INCLINATION":"53.2225","ECCENTRICITY":"0.00020360","OBJECT_ID":"2022-041AC","TLE_LINE1":"1 52287U 22041AC  22185.91667824  .00024890  00000-0  15767-2 0  9995","MEAN_MOTION":"15.08833017","SITE":"AFETR","REF_FRAME":"TEME","CENTER_NAME":"EARTH","MEAN_ELEMENT_THEORY":"SGP4","OBJECT_TYPE":"PAYLOAD","GP_ID":"207419725","EPHEMERIS_TYPE":"0","MEAN_MOTION_DDOT":"0.0000000000000","REV_AT_EPOCH":"130","MEAN_ANOMALY":"4.8087","SEMIMAJOR_AXIS":"6917.902","OBJECT_NAME":"STARLINK-3822","EPOCH":"2022-07-04T22:00:00.999936","ELEMENT_SET_NO":"999","PERIOD":"95.438","TLE_LINE2":"2 52287  53.2225  21.5391 0002036  48.1889   4.8087 15.08833017  1302","BSTAR":"0.00157670000000","CLASSIFICATION_TYPE":"U","LAUNCH_DATE":"2022-04-21","COUNTRY_CODE":"US","MEAN_MOTION_DOT":"0.00024890","FILE":"3507746"},{"MEAN_MOTION":"15.27793132","OBJECT_ID":"2022-041AD","TLE_LINE1":"1 52288U 22041AD  22185.91667824 -.00723294  00000-0 -28178-1 0  9991","REF_FRAME":"TEME","SITE":"AFETR","ECCENTRICITY":"0.00015400","PERIAPSIS":"481.356","RA_OF_ASC_NODE":"12.4081","TIME_SYSTEM":"UTC","INCLINATION":"53.2176","ARG_OF_PERICENTER":"51.2154","RCS_SIZE":"LARGE","APOAPSIS":"483.470","DECAY_DATE":null,"NORAD_CAT_ID":"52288","LAUNCH_DATE":"2022-04-21","ELEMENT_SET_NO":"999","TLE_LINE2":"2 52288  53.2176  12.4081 0001540  51.2154  53.5233 15.27793132  1300","PERIOD":"94.254","CLASSIFICATION_TYPE":"U","BSTAR":"-0.02817800000000","COUNTRY_CODE":"US","FILE":"3507746","MEAN_MOTION_DOT":"-0.00723294","SEMIMAJOR_AXIS":"6860.548","OBJECT_NAME":"STARLINK-3776","REV_AT_EPOCH":"130","MEAN_ANOMALY":"53.5233","EPOCH":"2022-07-04T22:00:00.999936","EPHEMERIS_TYPE":"0","GP_ID":"207420177","MEAN_MOTION_DDOT":"0.0000000000000","CENTER_NAME":"EARTH","OBJECT_TYPE":"PAYLOAD","MEAN_ELEMENT_THEORY":"SGP4"}];
